{
    "links": {
        "self": "http://www.neowsapp.com/rest/v1/neo/3775097?api_key=iIulBulltgU6a56xZRHN4H3l9WmuAYTsLGpBGhQ2"
    },
    "id": "3775097",
    "neo_reference_id": "3775097",
    "name": "(2017 KV31)",
    "designation": "2017 KV31",
    "nasa_jpl_url": "http://ssd.jpl.nasa.gov/sbdb.cgi?sstr=3775097",
    "absolute_magnitude_h": 23.5,
    "estimated_diameter": {
        "kilometers": {
            "estimated_diameter_min": 0.0530340723,
            "estimated_diameter_max": 0.1185877909
        },
        "meters": {
            "estimated_diameter_min": 53.0340723319,
            "estimated_diameter_max": 118.5877908577
        },
        "miles": {
            "estimated_diameter_min": 0.0329538346,
            "estimated_diameter_max": 0.0736870142
        },
        "feet": {
            "estimated_diameter_min": 173.9963058693,
            "estimated_diameter_max": 389.0675677576
        }
    },
    "is_potentially_hazardous_asteroid": false,
    "close_approach_data": [
        {
            "close_approach_date": "2017-07-05",
            "close_approach_date_full": "2017-Jul-05 08:19",
            "epoch_date_close_approach": 1499242740000,
            "relative_velocity": {
                "kilometers_per_second": "5.0160639359",
                "kilometers_per_hour": "18057.8301693361",
                "miles_per_hour": "11220.4334182744"
            },
            "miss_distance": {
                "astronomical": "0.1562588401",
                "lunar": "60.7846887989",
                "kilometers": "23375989.647630587",
                "miles": "14525166.4261206206"
            },
            "orbiting_body": "Earth"
        }
    ],
    "orbital_data": {
        "orbit_id": "7",
        "orbit_determination_date": "2017-08-06 06:16:58",
        "first_observation_date": "2017-05-27",
        "last_observation_date": "2017-06-29",
        "data_arc_in_days": 33,
        "observations_used": 41,
        "orbit_uncertainty": "7",
        "minimum_orbit_intersection": ".154515",
        "jupiter_tisserand_invariant": "3.574",
        "epoch_osculation": "2459000.5",
        "eccentricity": ".4596651250715352",
        "semi_major_axis": "2.128368609516287",
        "inclination": "6.208039393136553",
        "ascending_node_longitude": "244.5704926733533",
        "orbital_period": "1134.145292405877",
        "perihelion_distance": "1.150031786424653",
        "perihelion_argument": "45.50619554588465",
        "aphelion_distance": "3.10670543260792",
        "perihelion_time": "2459082.150244705197",
        "mean_anomaly": "334.082608030302",
        "mean_motion": ".317419648444096",
        "equinox": "J2000",
        "orbit_class": {
            "orbit_class_type": "AMO",
            "orbit_class_description": "Near-Earth asteroid orbits similar to that of 1221 Amor",
            "orbit_class_range": "1.017 AU < q (perihelion) < 1.3 AU"
        }
    },
    "is_sentry_object": false
}